*******************************************************************************
JPL/HORIZONS               3753 Cruithne (1986 TO)         2023-May-07 09:02:36
Rec #:    3753 (+COV) Soln.date: 2023-Mar-01_06:10:23   # obs: 1216 (1973-2022)
 
IAU76/J2000 helio. ecliptic osc. elements (au, days, deg., period=Julian yrs):
 
  EPOCH=  2456900.5 ! 2014-Aug-31.00 (TDB)         Residual RMS= .35645
   EC= .5148627256994029   QR= .4840184658385133   TP= 2457012.169995938
   OM= 126.2462939076055   W=  43.80978547847901   IN= 19.80747881540994
   A= .9976938311662474    MA= 249.5553600271496   ADIST= 1.511369196493981
   PER= .99656             N= .9890269900000001    ANGMOM= .014729875
   DAN= .53459             DDN= 1.16671            L= 168.3137556
   B= 13.566979            MOID= .0710535          TP= 2014-Dec-20.6699959380
 
Asteroid physical parameters (km, seconds, rotational period in hours):
   GM= n.a.                RAD= 1.0355             ROTPER= 27.3099
   H= 15.5                 G= .150                 B-V= n.a.
                           ALBEDO= .365            STYP= Q
 
ASTEROID comments: 
1: soln ref.= JPL#240, OCC=0
2: source=ORB
*******************************************************************************

  
  

*******************************************************************************
Ephemeris / WWW_USER Sun May  7 09:02:36 2023 Pasadena, USA      / Horizons
*******************************************************************************
Target body name: 3753 Cruithne (1986 TO)         {source: JPL#240}
Center body name: Earth (399)                     {source: DE441}
Center-site name: BODY CENTER
*******************************************************************************
Start time      : A.D. 2007-Sep-01 00:00:00.0000 TDB
Stop  time      : A.D. 2008-Sep-01 00:00:00.0000 TDB
Step-size       : 1440 minutes
*******************************************************************************
Center geodetic : 0.0, 0.0, 0.0                   {E-lon(deg),Lat(deg),Alt(km)}
Center cylindric: 0.0, 0.0, 0.0                   {E-lon(deg),Dxy(km),Dz(km)}
Center radii    : 6378.137, 6378.137, 6356.752 km {Equator_a, b, pole_c}
Small perturbers: Yes                             {source: SB441-N16}
Output units    : KM-S
Calendar mode   : Mixed Julian/Gregorian
Output type     : GEOMETRIC cartesian states
Output format   : 1 (position only)
EOP file        : eop.230504.p230727
EOP coverage    : DATA-BASED 1962-JAN-20 TO 2023-MAY-04. PREDICTS-> 2023-JUL-26
Reference frame : ICRF
*******************************************************************************
Initial IAU76/J2000 heliocentric ecliptic osculating elements (au, days, deg.):
  EPOCH=  2456900.5 ! 2014-Aug-31.00 (TDB)         Residual RMS= .35645        
   EC= .5148627256994029   QR= .4840184658385133   TP= 2457012.169995938       
   OM= 126.2462939076055   W=  43.80978547847901   IN= 19.80747881540994       
  Equivalent ICRF heliocentric cartesian coordinates (au, au/d):
   X= 1.215347990905840E+00  Y= 5.153520927692684E-01  Z=-2.481738801145509E-01
  VX=-7.990656955364673E-03 VY= 8.039467650712289E-03 VZ= 3.939584837771865E-03
Asteroid physical parameters (km, seconds, rotational period in hours):        
   GM= n.a.                RAD= 1.0355             ROTPER= 27.3099             
   H= 15.5                 G= .150                 B-V= n.a.                   
                           ALBEDO= .365            STYP= Q                     
*******************************************************************************
            JDTDB,            Calendar Date (TDB),                      X,                      Y,                      Z,
**************************************************************************************************************************
$$SOE
2454444.500000000, A.D. 2007-Dec-10 00:00:00.0000, -6.092448214053851E+07, -5.216608080849583E+07, -3.275251929027991E+07,
2454445.500000000, A.D. 2007-Dec-11 00:00:00.0000, -6.127614189916211E+07, -5.537448158005247E+07, -3.266864257217400E+07,
2454446.500000000, A.D. 2007-Dec-12 00:00:00.0000, -6.157073811070310E+07, -5.865782419896246E+07, -3.260418939175359E+07,
2454447.500000000, A.D. 2007-Dec-13 00:00:00.0000, -6.180235377907968E+07, -6.201690270613182E+07, -3.256124597780831E+07,
2454448.500000000, A.D. 2007-Dec-14 00:00:00.0000, -6.196467840378559E+07, -6.545209827446836E+07, -3.254193610185537E+07,
2454449.500000000, A.D. 2007-Dec-15 00:00:00.0000, -6.205102342506305E+07, -6.896331274492776E+07, -3.254840248927901E+07,
2454450.500000000, A.D. 2007-Dec-16 00:00:00.0000, -6.205434804537895E+07, -7.254989933161101E+07, -3.258278448306200E+07,
2454451.500000000, A.D. 2007-Dec-17 00:00:00.0000, -6.196729691354717E+07, -7.621059204667878E+07, -3.264719181864443E+07,
2454452.500000000, A.D. 2007-Dec-18 00:00:00.0000, -6.178225099988367E+07, -7.994343579730144E+07, -3.274367447405619E+07,
2454453.500000000, A.D. 2007-Dec-19 00:00:00.0000, -6.149139277751583E+07, -8.374571949593407E+07, -3.287418870011200E+07,
2454454.500000000, A.D. 2007-Dec-20 00:00:00.0000, -6.108678656747424E+07, -8.761391492307031E+07, -3.304055954322609E+07,
2454455.500000000, A.D. 2007-Dec-21 00:00:00.0000, -6.056047456767414E+07, -9.154362453514381E+07, -3.324444049185202E+07,
2454456.500000000, A.D. 2007-Dec-22 00:00:00.0000, -5.990458854041684E+07, -9.552954195133975E+07, -3.348727133519469E+07,
2454457.500000000, A.D. 2007-Dec-23 00:00:00.0000, -5.911147616441267E+07, -9.956542940123662E+07, -3.377023587799883E+07,
2454458.500000000, A.D. 2007-Dec-24 00:00:00.0000, -5.817383950755694E+07, -1.036441166785265E+08, -3.409422164699225E+07,
2454459.500000000, A.D. 2007-Dec-25 00:00:00.0000, -5.708488110874797E+07, -1.077575256863073E+08, -3.445978391676419E+07,
2454460.500000000, A.D. 2007-Dec-26 00:00:00.0000, -5.583845136645978E+07, -1.118967232163962E+08, -3.486711613863529E+07,
2454461.500000000, A.D. 2007-Dec-27 00:00:00.0000, -5.442919001842575E+07, -1.160520024261539E+08, -3.531602829512075E+07,
2454462.500000000, A.D. 2007-Dec-28 00:00:00.0000, -5.285265471246380E+07, -1.202129912152910E+08, -3.580593412252924E+07,
2454463.500000000, A.D. 2007-Dec-29 00:00:00.0000, -5.110543066465850E+07, -1.243687839171368E+08, -3.633584775243559E+07,
2454464.500000000, A.D. 2007-Dec-30 00:00:00.0000, -4.918521664468507E+07, -1.285080915171895E+08, -3.690439008589535E+07,
2454465.500000000, A.D. 2007-Dec-31 00:00:00.0000, -4.709088374973930E+07, -1.326194048078235E+08, -3.750980496633565E+07,
2454466.500000000, A.D. 2008-Jan-01 00:00:00.0000, -4.482250466468607E+07, -1.366911643203901E+08, -3.814998484578450E+07,
2454467.500000000, A.D. 2008-Jan-02 00:00:00.0000, -4.238135246852258E+07, -1.407119305526518E+08, -3.882250515630148E+07,
2454468.500000000, A.D. 2008-Jan-03 00:00:00.0000, -3.976986954422848E+07, -1.446705480359010E+08, -3.952466609419741E+07,
2454469.500000000, A.D. 2008-Jan-04 00:00:00.0000, -3.699160866501865E+07, -1.485562972427851E+08, -4.025354009710833E+07,
2454470.500000000, A.D. 2008-Jan-05 00:00:00.0000, -3.405114969429798E+07, -1.523590292170865E+08, -4.100602301025925E+07,
2454471.500000000, A.D. 2008-Jan-06 00:00:00.0000, -3.095399639579798E+07, -1.560692790174087E+08, -4.177888682553343E+07,
2454472.500000000, A.D. 2008-Jan-07 00:00:00.0000, -2.770645851109563E+07, -1.596783554622780E+08, -4.256883192978117E+07,
2454473.500000000, A.D. 2008-Jan-08 00:00:00.0000, -2.431552450294857E+07, -1.631784060872516E+08, -4.337253699084400E+07,
2454474.500000000, A.D. 2008-Jan-09 00:00:00.0000, -2.078873022550908E+07, -1.665624575405991E+08, -4.418670490563367E+07,
2454475.500000000, A.D. 2008-Jan-10 00:00:00.0000, -1.713402834479249E+07, -1.698244327616231E+08, -4.500810359841537E+07,
2454476.500000000, A.D. 2008-Jan-11 00:00:00.0000, -1.335966268221283E+07, -1.729591471595393E+08, -4.583360085626796E+07,
2454477.500000000, A.D. 2008-Jan-12 00:00:00.0000, -9.474050867255256E+06, -1.759622866292855E+08, -4.666019279083177E+07,
2454478.500000000, A.D. 2008-Jan-13 00:00:00.0000, -5.485677825642765E+06, -1.788303706068828E+08, -4.748502588773147E+07,
2454479.500000000, A.D. 2008-Jan-14 00:00:00.0000, -1.403001758004397E+06, -1.815607034891242E+08, -4.830541291481294E+07,
2454480.500000000, A.D. 2008-Jan-15 00:00:00.0000,  2.765626548431188E+06, -1.841513176391860E+08, -4.911884318427661E+07,
2454481.500000000, A.D. 2008-Jan-16 00:00:00.0000,  7.012030911686666E+06, -1.866009109154912E+08, -4.992298779892044E+07,
2454482.500000000, A.D. 2008-Jan-17 00:00:00.0000,  1.132826377823575E+07, -1.889087812736661E+08, -5.071570058075634E+07,
2454483.500000000, A.D. 2008-Jan-18 00:00:00.0000,  1.570664770512319E+07, -1.910747606007798E+08, -5.149501542003020E+07,
2454484.500000000, A.D. 2008-Jan-19 00:00:00.0000,  2.013980510336879E+07, -1.930991496361102E+08, -5.225914083026613E+07,
2454485.500000000, A.D. 2008-Jan-20 00:00:00.0000,  2.462067721872853E+07, -1.949826556422195E+08, -5.300645255718747E+07,
2454486.500000000, A.D. 2008-Jan-21 00:00:00.0000,  2.914253361757614E+07, -1.967263343430202E+08, -5.373548512435582E+07,
2454487.500000000, A.D. 2008-Jan-22 00:00:00.0000,  3.369897386665981E+07, -1.983315373854150E+08, -5.444492312754604E+07,
2454488.500000000, A.D. 2008-Jan-23 00:00:00.0000,  3.828392348131102E+07, -1.997998660737368E+08, -5.513359285717078E+07,
2454489.500000000, A.D. 2008-Jan-24 00:00:00.0000,  4.289162630170140E+07, -2.011331314057880E+08, -5.580045447245446E+07,
2454490.500000000, A.D. 2008-Jan-25 00:00:00.0000,  4.751663508920854E+07, -2.023333197437738E+08, -5.644459461286488E+07,
2454491.500000000, A.D. 2008-Jan-26 00:00:00.0000,  5.215380143841609E+07, -2.034025630635563E+08, -5.706521915878518E+07,
2454492.500000000, A.D. 2008-Jan-27 00:00:00.0000,  5.679826539353502E+07, -2.043431127451212E+08, -5.766164588662892E+07,
2454493.500000000, A.D. 2008-Jan-28 00:00:00.0000,  6.144544471045770E+07, -2.051573161669583E+08, -5.823329692431178E+07,
